{
  "type": "FeatureCollection",
  "features": [
    {
      "type": "Feature",
      "properties": {
        "norad_id": 55973,
        "name": "TIANMU-1 03",
        "group": "weather",
        "lat": 19.17179985079276,
        "lon": -15.515015870945684,
        "alt_km": 444.51791159870936,
        "timestamp": "2025-12-24T20:42:20.662101+00:00",
        "meta_object_name": "TIANMU-1 03",
        "meta_object_id": "2023-039A",
        "meta_epoch": "2025-12-24T05:59:16.952928",
        "meta_mean_motion": 15.41251862,
        "meta_eccentricity": 0.00038332,
        "meta_inclination": 97.5113,
        "meta_ra_of_asc_node": 161.225,
        "meta_arg_of_pericenter": 27.6552,
        "meta_mean_anomaly": 332.4897,
        "meta_ephemeris_type": 0,
        "meta_classification_type": "U",
        "meta_norad_cat_id": 55973,
        "meta_element_set_no": 999,
        "meta_rev_at_epoch": 15383,
        "meta_bstar": 0.00041499893,
        "meta_mean_motion_dot": 0.00017188,
        "meta_mean_motion_ddot": 0,
        "tle_line1": "1 55973U 23039A   25358.24950177  .00017188  00000+0  41500-3 0  9991",
        "tle_line2": "2 55973  97.5113 161.2250 0003833  27.6552 332.4897 15.41251862153839"
      },
      "geometry": {
        "type": "Point",
        "coordinates": [
          -15.515015870945684,
          19.17179985079276
        ]
      }
    },
    {
      "type": "Feature",
      "properties": {
        "norad_id": 55974,
        "name": "TIANMU-1 04",
        "group": "weather",
        "lat": -69.43686583888164,
        "lon": -178.38486344726311,
        "alt_km": 448.6028579531858,
        "timestamp": "2025-12-24T20:42:20.662111+00:00",
        "meta_object_name": "TIANMU-1 04",
        "meta_object_id": "2023-039B",
        "meta_epoch": "2025-12-24T06:59:30.674400",
        "meta_mean_motion": 15.41596371,
        "meta_eccentricity": 0.0004446,
        "meta_inclination": 97.5046,
        "meta_ra_of_asc_node": 160.4543,
        "meta_arg_of_pericenter": 20.7077,
        "meta_mean_anomaly": 339.4349,
        "meta_ephemeris_type": 0,
        "meta_classification_type": "U",
        "meta_norad_cat_id": 55974,
        "meta_element_set_no": 999,
        "meta_rev_at_epoch": 15384,
        "meta_bstar": 0.00040512038,
        "meta_mean_motion_dot": 0.00016971,
        "meta_mean_motion_ddot": 0,
        "tle_line1": "1 55974U 23039B   25358.29132725  .00016971  00000+0  40512-3 0  9999",
        "tle_line2": "2 55974  97.5046 160.4543 0004446  20.7077 339.4349 15.41596371153845"
      },
      "geometry": {
        "type": "Point",
        "coordinates": [
          -178.38486344726311,
          -69.43686583888164
        ]
      }
    },
    {
      "type": "Feature",
      "properties": {
        "norad_id": 55975,
        "name": "TIANMU-1 05",
        "group": "weather",
        "lat": -54.89928405182574,
        "lon": 172.35223362758208,
        "alt_km": 450.02283579659706,
        "timestamp": "2025-12-24T20:42:20.662122+00:00",
        "meta_object_name": "TIANMU-1 05",
        "meta_object_id": "2023-039C",
        "meta_epoch": "2025-12-24T06:55:21.444960",
        "meta_mean_motion": 15.41209821,
        "meta_eccentricity": 0.00039902,
        "meta_inclination": 97.5092,
        "meta_ra_of_asc_node": 160.9443,
        "meta_arg_of_pericenter": 46.3231,
        "meta_mean_anomaly": 313.8345,
        "meta_ephemeris_type": 0,
        "meta_classification_type": "U",
        "meta_norad_cat_id": 55975,
        "meta_element_set_no": 999,
        "meta_rev_at_epoch": 15382,
        "meta_bstar": 0.00040383758,
        "meta_mean_motion_dot": 0.000167,
        "meta_mean_motion_ddot": 0,
        "tle_line1": "1 55975U 23039C   25358.28844265  .00016700  00000+0  40384-3 0  9995",
        "tle_line2": "2 55975  97.5092 160.9443 0003990  46.3231 313.8345 15.41209821153821"
      },
      "geometry": {
        "type": "Point",
        "coordinates": [
          172.35223362758208,
          -54.89928405182574
        ]
      }
    },
    {
      "type": "Feature",
      "properties": {
        "norad_id": 55976,
        "name": "TIANMU-1 06",
        "group": "weather",
        "lat": -77.96366459421681,
        "lon": -159.76564967036825,
        "alt_km": 449.9386966412385,
        "timestamp": "2025-12-24T20:42:20.662132+00:00",
        "meta_object_name": "TIANMU-1 06",
        "meta_object_id": "2023-039D",
        "meta_epoch": "2025-12-24T07:02:05.193024",
        "meta_mean_motion": 15.41647486,
        "meta_eccentricity": 0.0004233,
        "meta_inclination": 97.5103,
        "meta_ra_of_asc_node": 161.4236,
        "meta_arg_of_pericenter": 40.4568,
        "meta_mean_anomaly": 319.6993,
        "meta_ephemeris_type": 0,
        "meta_classification_type": "U",
        "meta_norad_cat_id": 55976,
        "meta_element_set_no": 999,
        "meta_rev_at_epoch": 15384,
        "meta_bstar": 0.00040145901,
        "meta_mean_motion_dot": 0.00016845,
        "meta_mean_motion_ddot": 0,
        "tle_line1": "1 55976U 23039D   25358.29311566  .00016845  00000+0  40146-3 0  9996",
        "tle_line2": "2 55976  97.5103 161.4236 0004233  40.4568 319.6993 15.41647486153848"
      },
      "geometry": {
        "type": "Point",
        "coordinates": [
          -159.76564967036825,
          -77.96366459421681
        ]
      }
    },
    {
      "type": "Feature",
      "properties": {
        "norad_id": 56232,
        "name": "FENGYUN 3G",
        "group": "weather",
        "lat": -49.831575176399404,
        "lon": 80.57540656158673,
        "alt_km": 412.6698429489843,
        "timestamp": "2025-12-24T20:42:20.662144+00:00",
        "meta_object_name": "FENGYUN 3G",
        "meta_object_id": "2023-055A",
        "meta_epoch": "2025-12-24T10:15:36.171936",
        "meta_mean_motion": 15.52003311,
        "meta_eccentricity": 0.0003875,
        "meta_inclination": 49.9918,
        "meta_ra_of_asc_node": 167.1155,
        "meta_arg_of_pericenter": 288.9301,
        "meta_mean_anomaly": 71.1246,
        "meta_ephemeris_type": 0,
        "meta_classification_type": "U",
        "meta_norad_cat_id": 56232,
        "meta_element_set_no": 999,
        "meta_rev_at_epoch": 15284,
        "meta_bstar": 0.000503,
        "meta_mean_motion_dot": 0.00030538,
        "meta_mean_motion_ddot": 0,
        "tle_line1": "1 56232U 23055A   25358.42750199  .00030538  00000+0  50300-3 0  9992",
        "tle_line2": "2 56232  49.9918 167.1155 0003875 288.9301  71.1246 15.52003311152842"
      },
      "geometry": {
        "type": "Point",
        "coordinates": [
          80.57540656158673,
          -49.831575176399404
        ]
      }
    },
    {
      "type": "Feature",
      "properties": {
        "norad_id": 57166,
        "name": "METEOR-M2 3",
        "group": "weather",
        "lat": 77.23654738741733,
        "lon": 10.051267693663824,
        "alt_km": 805.2593947168243,
        "timestamp": "2025-12-24T20:42:20.662155+00:00",
        "meta_object_name": "METEOR-M2 3",
        "meta_object_id": "2023-091A",
        "meta_epoch": "2025-12-24T06:50:18.066912",
        "meta_mean_motion": 14.24027425,
        "meta_eccentricity": 0.00032877,
        "meta_inclination": 98.6362,
        "meta_ra_of_asc_node": 51.6218,
        "meta_arg_of_pericenter": 333.0311,
        "meta_mean_anomaly": 27.0697,
        "meta_ephemeris_type": 0,
        "meta_classification_type": "U",
        "meta_norad_cat_id": 57166,
        "meta_element_set_no": 999,
        "meta_rev_at_epoch": 12962,
        "meta_bstar": 2.2093923e-05,
        "meta_mean_motion_dot": 7e-08,
        "meta_mean_motion_ddot": 0,
        "tle_line1": "1 57166U 23091A   25358.28493133  .00000007  00000+0  22094-4 0  9993",
        "tle_line2": "2 57166  98.6362  51.6218 0003287 333.0311  27.0697 14.24027425129620"
      },
      "geometry": {
        "type": "Point",
        "coordinates": [
          10.051267693663824,
          77.23654738741733
        ]
      }
    },
    {
      "type": "Feature",
      "properties": {
        "norad_id": 57399,
        "name": "TIANMU-1 07",
        "group": "weather",
        "lat": 54.939448673241195,
        "lon": -121.05097100005003,
        "alt_km": 474.9737332510813,
        "timestamp": "2025-12-24T20:42:20.662165+00:00",
        "meta_object_name": "TIANMU-1 07",
        "meta_object_id": "2023-101A",
        "meta_epoch": "2025-12-24T06:01:15.414240",
        "meta_mean_motion": 15.28230584,
        "meta_eccentricity": 0.000507,
        "meta_inclination": 97.2856,
        "meta_ra_of_asc_node": 47.8467,
        "meta_arg_of_pericenter": 52.0404,
        "meta_mean_anomaly": 308.1293,
        "meta_ephemeris_type": 0,
        "meta_classification_type": "U",
        "meta_norad_cat_id": 57399,
        "meta_element_set_no": 999,
        "meta_rev_at_epoch": 13491,
        "meta_bstar": 0.00028294357,
        "meta_mean_motion_dot": 7.714e-05,
        "meta_mean_motion_ddot": 0,
        "tle_line1": "1 57399U 23101A   25358.25087285  .00007714  00000+0  28294-3 0  9996",
        "tle_line2": "2 57399  97.2856  47.8467 0005070  52.0404 308.1293 15.28230584134917"
      },
      "geometry": {
        "type": "Point",
        "coordinates": [
          -121.05097100005003,
          54.939448673241195
        ]
      }
    }
  ]
}